[{"OBJECT_NAME":"CARBONITE 1 (CBNT-1)","OBJECT_ID":"2015-032D","EPOCH":"2026-03-09T23:00:42.777216","MEAN_MOTION":14.83223736,"ECCENTRICITY":0.0013267,"INCLINATION":97.6467,"RA_OF_ASC_NODE":251.2159,"ARG_OF_PERICENTER":259.6402,"MEAN_ANOMALY":100.3317,"EPHEMERIS_TYPE":0,"CLASSIFICATION_TYPE":"U","NORAD_CAT_ID":40718,"ELEMENT_SET_NO":999,"REV_AT_EPOCH":57463,"BSTAR":0.00052444673,"MEAN_MOTION_DOT":4.241e-5,"MEAN_MOTION_DDOT":0},{"OBJECT_NAME":"SL-14 R\/B","OBJECT_ID":"1984-105B","EPOCH":"2026-03-09T12:29:04.121376","MEAN_MOTION":14.85838389,"ECCENTRICITY":0.00185681,"INCLINATION":82.5301,"RA_OF_ASC_NODE":85.7447,"ARG_OF_PERICENTER":291.3248,"MEAN_ANOMALY":184.9077,"EPHEMERIS_TYPE":0,"CLASSIFICATION_TYPE":"U","NORAD_CAT_ID":15332,"ELEMENT_SET_NO":999,"REV_AT_EPOCH":21819,"BSTAR":6.6372461e-5,"MEAN_MOTION_DOT":6.03e-6,"MEAN_MOTION_DDOT":0}]
